[{"OBJECT_NAME":"STARLINK-3102","OBJECT_ID":"2021-082X","EPOCH":"2025-09-04T17:11:06.523872","MEAN_MOTION":14.98328156,"ECCENTRICITY":0.00030852,"INCLINATION":70.0018,"RA_OF_ASC_NODE":3.3562,"ARG_OF_PERICENTER":267.7961,"MEAN_ANOMALY":92.2845,"EPHEMERIS_TYPE":0,"CLASSIFICATION_TYPE":"U","NORAD_CAT_ID":49151,"ELEMENT_SET_NO":999,"REV_AT_EPOCH":22030,"BSTAR":4.9082206e-5,"MEAN_MOTION_DOT":4.93e-6,"MEAN_MOTION_DDOT":0},{"OBJECT_NAME":"STARLINK-3072","OBJECT_ID":"2021-082Z","EPOCH":"2025-09-05T07:24:18.187776","MEAN_MOTION":14.98326592,"ECCENTRICITY":0.00029929,"INCLINATION":70.0022,"RA_OF_ASC_NODE":1.8681,"ARG_OF_PERICENTER":268.4217,"MEAN_ANOMALY":91.66,"EPHEMERIS_TYPE":0,"CLASSIFICATION_TYPE":"U","NORAD_CAT_ID":49153,"ELEMENT_SET_NO":999,"REV_AT_EPOCH":22040,"BSTAR":0.00010416389,"MEAN_MOTION_DOT":1.15e-5,"MEAN_MOTION_DDOT":0},{"OBJECT_NAME":"STARLINK-3068","OBJECT_ID":"2021-082AA","EPOCH":"2025-09-04T18:23:59.493984","MEAN_MOTION":14.97521118,"ECCENTRICITY":0.00029822,"INCLINATION":70.0017,"RA_OF_ASC_NODE":23.4209,"ARG_OF_PERICENTER":268.5339,"MEAN_ANOMALY":91.5478,"EPHEMERIS_TYPE":0,"CLASSIFICATION_TYPE":"U","NORAD_CAT_ID":49154,"ELEMENT_SET_NO":999,"REV_AT_EPOCH":21969,"BSTAR":-4.0460294e-5,"MEAN_MOTION_DOT":-5.65e-6,"MEAN_MOTION_DDOT":0},{"OBJECT_NAME":"STARLINK-3060","OBJECT_ID":"2021-082AB","EPOCH":"2025-09-05T07:18:18.322272","MEAN_MOTION":14.98320491,"ECCENTRICITY":0.00028592,"INCLINATION":70.002,"RA_OF_ASC_NODE":1.8717,"ARG_OF_PERICENTER":270.5496,"MEAN_ANOMALY":89.5336,"EPHEMERIS_TYPE":0,"CLASSIFICATION_TYPE":"U","NORAD_CAT_ID":49155,"ELEMENT_SET_NO":999,"REV_AT_EPOCH":22027,"BSTAR":-8.877466e-6,"MEAN_MOTION_DOT":-1.99e-6,"MEAN_MOTION_DDOT":0},{"OBJECT_NAME":"STARLINK-3085","OBJECT_ID":"2021-082AC","EPOCH":"2025-09-04T17:59:10.554144","MEAN_MOTION":14.98333296,"ECCENTRICITY":0.00030788,"INCLINATION":70.0016,"RA_OF_ASC_NODE":3.2728,"ARG_OF_PERICENTER":270.9938,"MEAN_ANOMALY":89.0868,"EPHEMERIS_TYPE":0,"CLASSIFICATION_TYPE":"U","NORAD_CAT_ID":49156,"ELEMENT_SET_NO":999,"REV_AT_EPOCH":22019,"BSTAR":-2.5055824e-5,"MEAN_MOTION_DOT":-3.92e-6,"MEAN_MOTION_DDOT":0},{"OBJECT_NAME":"STARLINK-3051","OBJECT_ID":"2021-082AD","EPOCH":"2025-09-04T19:03:21.961152","MEAN_MOTION":14.98529559,"ECCENTRICITY":0.00027024,"INCLINATION":70.0032,"RA_OF_ASC_NODE":23.1488,"ARG_OF_PERICENTER":270.0684,"MEAN_ANOMALY":90.0165,"EPHEMERIS_TYPE":0,"CLASSIFICATION_TYPE":"U","NORAD_CAT_ID":49157,"ELEMENT_SET_NO":999,"REV_AT_EPOCH":21972,"BSTAR":0.00060085686,"MEAN_MOTION_DOT":7.121e-5,"MEAN_MOTION_DDOT":0},{"OBJECT_NAME":"STARLINK-3083","OBJECT_ID":"2021-082AE","EPOCH":"2025-09-05T06:52:18.140448","MEAN_MOTION":15.4191578,"ECCENTRICITY":3.367e-5,"INCLINATION":69.9813,"RA_OF_ASC_NODE":322.2972,"ARG_OF_PERICENTER":246.2025,"MEAN_ANOMALY":113.9121,"EPHEMERIS_TYPE":0,"CLASSIFICATION_TYPE":"U","NORAD_CAT_ID":49158,"ELEMENT_SET_NO":999,"REV_AT_EPOCH":22127,"BSTAR":0.0010264297,"MEAN_MOTION_DOT":0.00043867,"MEAN_MOTION_DDOT":0},{"OBJECT_NAME":"STARLINK-3056","OBJECT_ID":"2021-082AF","EPOCH":"2025-09-05T03:54:40.284000","MEAN_MOTION":14.98345351,"ECCENTRICITY":0.00026308,"INCLINATION":70.0008,"RA_OF_ASC_NODE":42.2364,"ARG_OF_PERICENTER":269.8836,"MEAN_ANOMALY":90.2022,"EPHEMERIS_TYPE":0,"CLASSIFICATION_TYPE":"U","NORAD_CAT_ID":49159,"ELEMENT_SET_NO":999,"REV_AT_EPOCH":21928,"BSTAR":-0.00023840165,"MEAN_MOTION_DOT":-2.937e-5,"MEAN_MOTION_DDOT":0},{"OBJECT_NAME":"STARLINK-3095","OBJECT_ID":"2021-082AG","EPOCH":"2025-09-05T03:36:38.615616","MEAN_MOTION":14.98330994,"ECCENTRICITY":0.00030478,"INCLINATION":70.0008,"RA_OF_ASC_NODE":42.2503,"ARG_OF_PERICENTER":269.1297,"MEAN_ANOMALY":90.9513,"EPHEMERIS_TYPE":0,"CLASSIFICATION_TYPE":"U","NORAD_CAT_ID":49160,"ELEMENT_SET_NO":999,"REV_AT_EPOCH":21925,"BSTAR":1.0693587e-5,"MEAN_MOTION_DOT":3.5e-7,"MEAN_MOTION_DDOT":0},{"OBJECT_NAME":"STARLINK-3080","OBJECT_ID":"2021-082AH","EPOCH":"2025-09-05T03:42:39.421152","MEAN_MOTION":14.98328805,"ECCENTRICITY":0.000332,"INCLINATION":70.0009,"RA_OF_ASC_NODE":42.2363,"ARG_OF_PERICENTER":269.1244,"MEAN_ANOMALY":90.9535,"EPHEMERIS_TYPE":0,"CLASSIFICATION_TYPE":"U","NORAD_CAT_ID":49161,"ELEMENT_SET_NO":999,"REV_AT_EPOCH":21926,"BSTAR":5.269605e-6,"MEAN_MOTION_DOT":-3.0e-7,"MEAN_MOTION_DDOT":0},{"OBJECT_NAME":"STARLINK-3088","OBJECT_ID":"2021-082AK","EPOCH":"2025-09-04T19:42:09.565056","MEAN_MOTION":14.97525102,"ECCENTRICITY":0.00028996,"INCLINATION":70.0013,"RA_OF_ASC_NODE":23.294,"ARG_OF_PERICENTER":268.5107,"MEAN_ANOMALY":91.572,"EPHEMERIS_TYPE":0,"CLASSIFICATION_TYPE":"U","NORAD_CAT_ID":49163,"ELEMENT_SET_NO":999,"REV_AT_EPOCH":21978,"BSTAR":0.00017051446,"MEAN_MOTION_DOT":1.901e-5,"MEAN_MOTION_DDOT":0},{"OBJECT_NAME":"STARLINK-3106","OBJECT_ID":"2021-082AL","EPOCH":"2025-09-04T18:41:34.455264","MEAN_MOTION":14.98326537,"ECCENTRICITY":0.00025117,"INCLINATION":70.0003,"RA_OF_ASC_NODE":23.1955,"ARG_OF_PERICENTER":269.3179,"MEAN_ANOMALY":90.7693,"EPHEMERIS_TYPE":0,"CLASSIFICATION_TYPE":"U","NORAD_CAT_ID":49164,"ELEMENT_SET_NO":999,"REV_AT_EPOCH":21979,"BSTAR":-1.9041186e-5,"MEAN_MOTION_DOT":-3.2e-6,"MEAN_MOTION_DDOT":0},{"OBJECT_NAME":"STARLINK-3052","OBJECT_ID":"2021-082AM","EPOCH":"2025-09-04T19:29:58.586496","MEAN_MOTION":14.98324338,"ECCENTRICITY":0.0002994,"INCLINATION":70.0008,"RA_OF_ASC_NODE":43.1343,"ARG_OF_PERICENTER":268.0579,"MEAN_ANOMALY":92.0238,"EPHEMERIS_TYPE":0,"CLASSIFICATION_TYPE":"U","NORAD_CAT_ID":49165,"ELEMENT_SET_NO":999,"REV_AT_EPOCH":21933,"BSTAR":-5.9425551e-5,"MEAN_MOTION_DOT":-8.02e-6,"MEAN_MOTION_DDOT":0},{"OBJECT_NAME":"STARLINK-3089","OBJECT_ID":"2021-082AN","EPOCH":"2025-09-04T17:59:55.125312","MEAN_MOTION":14.97537508,"ECCENTRICITY":0.00038529,"INCLINATION":70.0018,"RA_OF_ASC_NODE":23.4771,"ARG_OF_PERICENTER":270.1476,"MEAN_ANOMALY":89.9241,"EPHEMERIS_TYPE":0,"CLASSIFICATION_TYPE":"U","NORAD_CAT_ID":49166,"ELEMENT_SET_NO":999,"REV_AT_EPOCH":21981,"BSTAR":0.00016502389,"MEAN_MOTION_DOT":1.837e-5,"MEAN_MOTION_DDOT":0},{"OBJECT_NAME":"STARLINK-3054","OBJECT_ID":"2021-082AP","EPOCH":"2025-09-05T03:18:37.443168","MEAN_MOTION":14.98340683,"ECCENTRICITY":0.00029564,"INCLINATION":70.0018,"RA_OF_ASC_NODE":42.2915,"ARG_OF_PERICENTER":273.7189,"MEAN_ANOMALY":86.3632,"EPHEMERIS_TYPE":0,"CLASSIFICATION_TYPE":"U","NORAD_CAT_ID":49167,"ELEMENT_SET_NO":999,"REV_AT_EPOCH":21938,"BSTAR":1.4296393e-5,"MEAN_MOTION_DOT":7.8e-7,"MEAN_MOTION_DDOT":0},{"OBJECT_NAME":"STARLINK-3046","OBJECT_ID":"2021-082AR","EPOCH":"2025-09-04T18:35:33.635904","MEAN_MOTION":14.98328563,"ECCENTRICITY":0.00031593,"INCLINATION":70.0015,"RA_OF_ASC_NODE":23.2244,"ARG_OF_PERICENTER":269.2831,"MEAN_ANOMALY":90.7966,"EPHEMERIS_TYPE":0,"CLASSIFICATION_TYPE":"U","NORAD_CAT_ID":49169,"ELEMENT_SET_NO":999,"REV_AT_EPOCH":21862,"BSTAR":-3.5254614e-5,"MEAN_MOTION_DOT":-5.14e-6,"MEAN_MOTION_DDOT":0}]
