STARLINK-3102           
1 49151U 21082X   25247.71604773  .00000493  00000+0  49082-4 0  9990
2 49151  70.0018   3.3562 0003085 267.7961  92.2845 14.98328156220305
STARLINK-3072           
1 49153U 21082Z   25248.30854384  .00001150  00000+0  10416-3 0  9992
2 49153  70.0022   1.8681 0002992 268.4217  91.6600 14.98326592220400
STARLINK-3068           
1 49154U 21082AA  25247.76666081 -.00000565  00000+0 -40460-4 0  9991
2 49154  70.0017  23.4209 0002982 268.5339  91.5478 14.97521118219697
STARLINK-3060           
1 49155U 21082AB  25248.30437873 -.00000199  00000+0 -88775-5 0  9993
2 49155  70.0020   1.8717 0002859 270.5496  89.5336 14.98320491220274
STARLINK-3085           
1 49156U 21082AC  25247.74942771 -.00000392  00000+0 -25056-4 0  9996
2 49156  70.0016   3.2728 0003078 270.9938  89.0868 14.98333296220190
STARLINK-3051           
1 49157U 21082AD  25247.79400418  .00007121  00000+0  60086-3 0  9995
2 49157  70.0032  23.1488 0002702 270.0684  90.0165 14.98529559219723
STARLINK-3083           
1 49158U 21082AE  25248.28632107  .00043867  00000+0  10264-2 0  9992
2 49158  69.9813 322.2972 0000336 246.2025 113.9121 15.41915780221278
STARLINK-3056           
1 49159U 21082AF  25248.16296625 -.00002937  00000+0 -23840-3 0  9991
2 49159  70.0008  42.2364 0002630 269.8836  90.2022 14.98345351219289
STARLINK-3095           
1 49160U 21082AG  25248.15044694  .00000035  00000+0  10694-4 0  9998
2 49160  70.0008  42.2503 0003047 269.1297  90.9513 14.98330994219259
STARLINK-3080           
1 49161U 21082AH  25248.15462293 -.00000030  00000+0  52696-5 0  9993
2 49161  70.0009  42.2363 0003320 269.1244  90.9535 14.98328805219264
STARLINK-3088           
1 49163U 21082AK  25247.82094404  .00001901  00000+0  17051-3 0  9994
2 49163  70.0013  23.2940 0002899 268.5107  91.5720 14.97525102219780
STARLINK-3106           
1 49164U 21082AL  25247.77887101 -.00000320  00000+0 -19041-4 0  9991
2 49164  70.0003  23.1955 0002511 269.3179  90.7693 14.98326537219797
STARLINK-3052           
1 49165U 21082AM  25247.81248364 -.00000802  00000+0 -59426-4 0  9995
2 49165  70.0008  43.1343 0002994 268.0579  92.0238 14.98324338219338
STARLINK-3089           
1 49166U 21082AN  25247.74994358  .00001837  00000+0  16502-3 0  9993
2 49166  70.0018  23.4771 0003852 270.1476  89.9241 14.97537508219816
STARLINK-3054           
1 49167U 21082AP  25248.13793337  .00000078  00000+0  14296-4 0  9997
2 49167  70.0018  42.2915 0002956 273.7189  86.3632 14.98340683219384
STARLINK-3046           
1 49169U 21082AR  25247.77469486 -.00000514  00000+0 -35255-4 0  9998
2 49169  70.0015  23.2244 0003159 269.2831  90.7966 14.98328563218625
